IRIDIUM 39              
1 25042U 97069D   25105.84689760  .00001719  00000+0  44620-3 0  9991
2 25042  86.3917 237.8405 0019019 149.7738 210.4568 14.49114329439939
IRIDIUM 38              
1 25043U 97069E   25105.89399878  .00001068  00000+0  34677-3 0  9993
2 25043  86.3919 259.3605 0001035  28.1076 332.0178 14.38042745437001
IRIDIUM 42              
1 25077U 97077A   25105.89347030  .00000996  00000+0  33457-3 0  9996
2 25077  86.3915 265.4590 0001683  73.6578 286.4804 14.36283637432251
IRIDIUM 44              
1 25078U 97077B   25105.87705946  .00001026  00000+0  31855-3 0  9994
2 25078  86.3942 247.5408 0001381 154.2601 205.8667 14.40173760434736
IRIDIUM 45              
1 25104U 97082A   25105.95494347  .00024666  00000+0  94506-3 0  9996
2 25104  86.3565  78.0514 0121248 202.8723 156.7095 15.19702477442583
IRIDIUM 24              
1 25105U 97082B   25105.93004358  .00001065  00000+0  31856-3 0  9991
2 25105  86.3856 106.7153 0009124 287.8455  72.1749 14.42016035434242
IRIDIUM 51              
1 25262U 98018A   25105.93827294  .00042820  00000+0  10828-2 0  9996
2 25262  86.3820  86.5424 0099431 127.4285 233.6067 15.34569045437463
IRIDIUM 57              
1 25273U 98019B   25105.94039623  .00000661  00000+0  22162-3 0  9993
2 25273  86.4016 171.3286 0002195  93.4822 266.6626 14.35842186415858
